{"version": 0.6, "generator": "Overpass API 0.7.57 93a4d346", "osm3s": {"timestamp_osm_base": "2021-12-08T13:46:41Z", "timestamp_areas_base": "2021-12-08T11:29:55Z", "copyright": "The data included in this document is from www.openstreetmap.org. The data is made available under ODbL."}, "elements": [{"type": "node", "id": 21640149, "lat": 61.4865542, "lon": 21.7968951, "tags": {"capital": "4", "is_in": "Satakunta, Western Finland, Finland, EU", "is_in:continent": "Europe", "is_in:country": "Finland", "is_in:country_code": "FI", "name": "Pori", "name:fi": "Pori", "name:hu": "Pori", "name:la": "Arctopolis", "name:no": "Björneborg", "name:ru": "Пори", "name:sr": "Пори", "name:sr-Latn": "Peri", "name:sv": "Björneborg", "old_name:de": "Bjorneborgh", "place": "city", "population": "83697", "population:date": "2021-01", "source:population": "Tilastokeskus", "start_date": "before 1724", "url": "www.pori.fi", "wikidata": "Q180233", "wikipedia": "fi:Pori"}}, {"type": "node", "id": 21640150, "lat": 61.3121553, "lon": 22.1336155, "tags": {"is_in": "Finland", "name": "Harjavalta", "name:ru": "Харьявалта", "place": "town", "population": "7513", "website": "https://www.harjavalta.fi/", "wikidata": "Q986578", "wikipedia": "fi:Harjavalta"}}, {"type": "node", "id": 21764085, "lat": 61.3601139, "lon": 21.6267263, "tags": {"is_in": "Finland", "name": "Luvia", "name:ru": "Лувиа", "place": "town", "population": "3359", "url": "http://www.luvia.fi/", "wikidata": "Q959006", "wikipedia": "fi:Luvia"}}, {"type": "node", "id": 21847490, "lat": 60.4517531, "lon": 22.2670522, "tags": {"capital": "4", "name": "Turku", "name:ar": "توركو", "name:et": "Turu", "name:fa": "تورکو", "name:fi": "Turku", "name:hu": "Turku", "name:lt": "Turku", "name:mk": "Турку", "name:ru": "Турку", "name:sv": "Åbo", "name:zh": "圖爾庫", "place": "city", "population": "194483", "population:date": "2021-01", "postal_code": "20100", "source:name": "common knowledge", "source:population": "Tilastokeskus", "url": "http://www.turku.fi/", "wikidata": "Q38511", "wikipedia": "fi:Turku"}}, {"type": "node", "id": 22980865, "lat": 60.3953913, "lon": 25.6604862, "tags": {"is_in": "Finland", "name": "Porvoo", "name:fi": "Porvoo", "name:ru": "Порвоо", "name:sv": "Borgå", "note": "This should NOT be tagged a city. See http://wiki.openstreetmap.org/index.php/WikiProject_Finland/Places", "place": "town", "population": "50667", "population:date": "2021-01", "source:name": "common knowledge", "source:population": "Tilastokeskus", "url": "http://www.porvoo.fi/", "wikidata": "Q193367", "wikipedia": "fi:Porvoo"}}, {"type": "node", "id": 27289601, "lat": 61.3208905, "lon": 22.7780861, "tags": {"is_in": "Finland", "name": "Kiikka", "name:fi": "Kiikka", "place": "town", "wikidata": "Q3432678", "wikipedia": "fi:Kiikka"}}, {"type": "node", "id": 27291057, "lat": 61.8027147, "lon": 22.3965338, "tags": {"is_in": "Finland", "name": "Kankaanpää", "name:fi": "Kankaanpää", "name:ru": "Канкаанпя", "place": "town", "population": "12760", "population:date": "2021-01", "source:population": "Tilastokeskus", "website": "https://www.kankaanpaa.fi/", "wikidata": "Q990569", "wikipedia": "fi:Kankaanpää"}}, {"type": "node", "id": 27294415, "lat": 62.1373063, "lon": 22.5603265, "tags": {"name": "Karvia", "name:ru": "Карвиа", "name_2": "Finland", "place": "town", "population": "2555", "website": "https://karvia.fi/", "wikidata": "Q1010034", "wikipedia": "fi:Karvia"}}, {"type": "node", "id": 29737412, "lat": 60.2693626, "lon": 24.4426969, "tags": {"name": "Veikkola", "name:fi": "Veikkola", "name:ru": "Вейккола", "name:sv": "Veikkola", "place": "town", "population": "5391"}}, {"type": "node", "id": 30871749, "lat": 60.3091871, "lon": 25.0364526, "tags": {"is_in": "Finland", "is_in:continent": "Europe", "is_in:country": "Finland", "is_in:country_code": "FI", "name": "Vantaa", "name:fi": "Vantaa", "name:lt": "Vanta", "name:ru": "Вантаа", "name:sv": "Vanda", "place": "city", "population": "237632", "population:date": "2021-01", "source:population": "Tilastokeskus", "url": "http://www.vantaa.fi/", "wikidata": "Q127623", "wikipedia": "fi:Vantaa"}}, {"type": "node", "id": 30969480, "lat": 61.4980214, "lon": 23.7603118, "tags": {"gns:ufi": "-1388513", "name": "Tampere", "name:ar": "تامبيري", "name:be": "Тамперэ", "name:el": "Τάμπερε", "name:fa": "تامپری", "name:fi": "Tampere", "name:ja": "タンペレ", "name:ko": "탐페레", "name:lt": "Tamperė", "name:no": "Tammerfors", "name:ru": "Тампере", "name:sv": "Tammerfors", "name:uk": "Тампере", "name:zh": "坦佩雷", "place": "city", "population": "241708", "population:date": "2021-01", "source": "gns", "start_date": "1779", "website": "https://www.tampere.fi/", "wikidata": "Q40840", "wikipedia": "fi:Tampere"}}, {"type": "node", "id": 30969494, "lat": 60.9826014, "lon": 25.6613764, "tags": {"gns:ufi": "-1373945", "name": "Lahti", "name:fi": "Lahti", "name:lt": "Lahtis", "name:ru": "Лахти", "name:sv": "Lahtis", "place": "city", "population": "120161", "population:date": "2021-01", "source": "gnssss Landsat", "source:population": "Tilastokeskus", "url": "https://www.lahti.fi/", "wikidata": "Q28911", "wikipedia": "fi:Lahti"}}, {"type": "node", "id": 30969502, "lat": 60.6335719, "lon": 24.8695328, "tags": {"gns:ufi": "-1366316", "name": "Hyvinkää", "name:fi": "Hyvinkää", "name:lt": "Hiuvinkė", "name:ru": "Хювинкяа", "name:sv": "Hyvinge", "place": "town", "population": "46616", "population:date": "2021-01", "postal_code": "05800", "source": "gnssLandsat", "source:population": "Tilastokeskus", "start_date": "1917", "url": "https://www.hyvinkaa.fi/", "website": "https://www.hyvinkaa.fi/", "wikidata": "Q207753", "wikipedia": "fi:Hyvinkää"}}, {"type": "node", "id": 30969519, "lat": 60.4743601, "lon": 25.0925118, "tags": {"gns:ufi": "-1367278", "name": "Järvenpää", "name:fi": "Järvenpää", "name:ru": "Ярвенпяа", "name:sr": "Јервенпе", "name:sv": "Träskända", "name:uk": "Ярвенпяа", "place": "town", "population": "44587", "population:date": "2021-01", "source": "gns", "source:population": "Tilastokeskus", "website": "https://www.jarvenpaa.fi/", "wikidata": "Q208293", "wikipedia": "fi:Järvenpää"}}, {"type": "node", "id": 30969527, "lat": 60.4034398, "lon": 25.1041013, "tags": {"gns:ufi": "-1370082", "is_in": "Finland", "name": "Kerava", "name:fi": "Kerava", "name:ru": "Керава", "name:sr": "Керава", "name:sv": "Kervo", "place": "town", "population": "37164", "population:date": "2021-01", "postal_code": "04200", "source": "gns", "source:population": "Tilastokeskus", "website": "https://kerava.fi/", "wikidata": "Q216900", "wikipedia": "fi:Kerava"}}, {"type": "node", "id": 30969532, "lat": 61.4781666, "lon": 23.5096158, "tags": {"alt_name": "Nokia", "gns:ufi": "-1378910", "name": "Nokia", "name:fi": "Nokia", "name:lt": "Nokija", "name:ru": "Нокиа", "place": "town", "population": "34525", "population:date": "2021-01", "source": "gns", "website": "https://www.nokiankaupunki.fi/", "wikidata": "Q192870", "wikipedia": "fi:Nokia (kaupunki)"}}, {"type": "node", "id": 30969533, "lat": 60.488138, "lon": 22.1635993, "tags": {"gns:ufi": "-1383277", "is_in": "Finland", "name": "Raisio", "name:fi": "Raisio", "name:ru": "Райсио", "name:sv": "Reso", "place": "town", "population": "24469", "population:date": "2021-01", "source": "gns", "source:population": "Tilastokeskus", "url": "http://www.raisio.fi/", "wikidata": "Q372075", "wikipedia": "fi:Raisio"}}, {"type": "node", "id": 30969534, "lat": 61.1289148, "lon": 21.5039401, "tags": {"gns:ufi": "-1383675", "is_in": "Finland", "name": "Rauma", "name:fi": "Rauma", "name:ru": "Раума", "name:sv": "Raumo", "note": "This should NOT be tagged a city. See http://wiki.openstreetmap.org/index.php/WikiProject_Finland/Places", "old_name:de": "Raumo", "place": "town", "population": "39044", "population:date": "2021-01", "ref:LOCODE": "FIRAU", "source": "gns", "source:population": "Tilastokeskus", "start_date": "before 1724", "url": "http://www.rauma.fi/", "wikidata": "Q37013", "wikipedia": "fi:Rauma"}}, {"type": "node", "id": 30969535, "lat": 60.7390089, "lon": 24.7728148, "tags": {"gns:ufi": "-1384003", "is_in": "Finland", "name": "Riihimäki", "name:fi": "Riihimäki", "name:ru": "Рийхимяки", "place": "town", "population": "28757", "population:date": "2021-01", "source": "gns", "source:population": "Tilastokeskus", "url": "http://www.riihimaki.fi/", "wikidata": "Q429864", "wikipedia": "fi:Riihimäki"}}, {"type": "node", "id": 30969538, "lat": 60.9948584, "lon": 24.46654, "tags": {"capital": "4", "gns:ufi": "-1364028", "name": "Hämeenlinna", "name:fi": "Hämeenlinna", "name:ru": "Хямеэнлинна", "name:sv": "Tavastehus", "place": "city", "population": "67878", "population:date": "2021-01", "source": "gns", "url": "http://www.hameenlinna.fi/", "wikidata": "Q202158", "wikipedia": "fi:Hämeenlinna"}}, {"type": "node", "id": 30969548, "lat": 60.6499508, "lon": 22.5865661, "tags": {"gns:ufi": "-1362250", "is_in": "Finland", "name": "Aura", "name:fi": "Aura", "name:ru": "Аура", "place": "town", "population": "3986", "source": "gns", "website": "https://aura.fi/", "wikidata": "Q774114", "wikipedia": "fi:Aura (kunta)"}}, {"type": "node", "id": 30969553, "lat": 61.1304007, "lon": 22.1302126, "tags": {"addr:postcode": "27510", "gns:ufi": "-1363095", "is_in": "Finland", "name": "Eura", "name:fi": "Eura", "name:ru": "Эура", "place": "town", "population": "11479", "population:date": "2021-01", "source": "gns", "source:population": "Tilastokeskus", "wikidata": "Q999868", "wikipedia": "fi:Eura"}}, {"type": "node", "id": 30969555, "lat": 60.8155736, "lon": 23.629833, "tags": {"gns:ufi": "-1363247", "is_in": "Finland", "name": "Forssa", "name:fi": "Forssa", "name:ru": "Форсса", "place": "town", "population": "16773", "population:date": "2021-01", "source": "gns", "source:population": "Tilastokeskus", "url": "http://www.forssa.fi/", "wikidata": "Q829842", "wikipedia": "fi:Forssa"}}, {"type": "node", "id": 30969558, "lat": 60.3965428, "lon": 23.0784257, "tags": {"gns:ufi": "-1363856", "name": "Halikko", "name:fi": "Halikko", "name:sv": "Halikko", "old_name:de": "Haliko", "place": "town", "source": "gns", "start_date": "before 1724", "wikidata": "Q1571103", "wikipedia": "fi:Halikko"}}, {"type": "node", "id": 30969559, "lat": 61.633333, "lon": 23.2, "tags": {"gns:ufi": "-1364024", "name": "Hämeenkyrö", "name:da": "Tavastkyro", "name:fi": "Hämeenkyrö", "name:it": "Tavastkyro", "name:nn": "Tavastkyro", "name:ru": "Хямеэнкюрё", "name:sv": "Tavastkyro", "place": "town", "population": "10348", "population:date": "2021-01", "source": "gns", "website": "https://hameenkyro.fi/", "wikidata": "Q996656", "wikipedia": "fi:Hämeenkyrö"}}, {"type": "node", "id": 30969568, "lat": 61.1833622, "lon": 22.7003288, "tags": {"gns:ufi": "-1366048", "is_in": "Finland", "name": "Huittinen", "name:fi": "Huittinen", "name:ru": "Гуйттинен", "name:sv": "Vittis", "old_name:sv": "Hvittis", "place": "town", "population": "9930", "population:date": "2021-01", "source": "gns", "source:population": "Tilastokeskus", "website": "https://www.huittinen.fi/", "wikidata": "Q165285", "wikipedia": "fi:Huittinen"}}, {"type": "node", "id": 30969569, "lat": 60.933333, "lon": 23.366667, "tags": {"gns:ufi": "-1366116", "is_in": "Finland", "name": "Humppila", "name:fi": "Humppila", "name:ru": "Хумппила", "place": "town", "population": "2391", "source": "gns", "wikidata": "Q1005129", "wikipedia": "fi:Humppila"}}, {"type": "node", "id": 30969576, "lat": 61.7701493, "lon": 23.0633777, "tags": {"alt_name": "Ikalis", "gns:ufi": "-1366441", "name": "Ikaalinen", "name:da": "Ikalis", "name:fi": "Ikaalinen", "name:it": "Ikalis", "name:nn": "Ikalis", "name:ru": "Икаалинен", "name:sv": "Ikalis", "place": "town", "population": "6866", "population:date": "2021-01", "source": "gns", "website": "https://ikaalinen.fi/", "wikidata": "Q735133", "wikipedia": "fi:Ikaalinen"}}, {"type": "node", "id": 30969593, "lat": 61.8639814, "lon": 25.1845044, "tags": {"gns:ufi": "-1367151", "name": "Jämsä", "name:ar": "يامسا", "name:az-Arab": "یامسا", "name:azb": "یامسا", "name:da": "Jämsä", "name:de": "Jämsä", "name:fa": "یامسا", "name:fi": "Jämsä", "name:ks": "یامسا", "name:nl": "Jämsä", "name:nn": "Jämsä", "name:no": "Jämsä", "name:ru": "Ямся", "name:sr": "Јемсе", "name:sv": "Jämsä", "name:uk": "Ямся", "name:ur": "یامسا", "place": "town", "population": "19884", "population:date": "2021-01", "source": "gns", "website": "https://www.jamsa.fi/", "wikidata": "Q642696", "wikipedia": "en:Jämsä"}}, {"type": "node", "id": 30969595, "lat": 61.9191417, "lon": 25.1793075, "tags": {"gns:ufi": "-1367158", "name": "Jämsänkoski", "name:de": "Jämsänkoski", "name:fi": "Jämsänkoski", "name:nn": "Jämsänkoski", "name:no": "Jämsänkoski", "name:ru": "Йямсянкоски", "name:sv": "Jämsänkoski", "place": "town", "population": "7351", "source": "gns", "wikidata": "Q992990", "wikipedia": "fi:Jämsänkoski"}}, {"type": "node", "id": 30969599, "lat": 60.5514226, "lon": 24.9678903, "tags": {"gns:ufi": "-1367482", "is_in": "Tuusula,Finland", "name": "Jokela", "name:fi": "Jokela", "place": "town", "population": "6196", "population:date": "2012-12-31", "source": "gns", "wikidata": "Q1702583", "wikipedia": "fi:Jokela"}}, {"type": "node", "id": 30969601, "lat": 60.8033158, "lon": 23.4868447, "tags": {"gns:ufi": "-1367548", "is_in": "Finland", "name": "Jokioinen", "name:fi": "Jokioinen", "name:ru": "Йокиойнен", "name:sv": "Jockis", "place": "town", "population": "5653", "source": "gnssLandsat", "wikidata": "Q997600", "wikipedia": "fi:Jokioinen"}}, {"type": "node", "id": 30969621, "lat": 61.0923297, "lon": 24.1363201, "tags": {"gns:ufi": "-1368731", "name": "Iittala", "name:fi": "Iittala", "name:ru": "Ииттала", "place": "town", "population": "2345", "source": "gns", "wikidata": "Q1247157", "wikipedia": "fi:Iittala"}}, {"type": "node", "id": 30969623, "lat": 61.4649006, "lon": 24.0659379, "tags": {"gns:ufi": "-1368813", "name": "Kangasala", "name:fi": "Kangasala", "name:ru": "Кангасала", "place": "town", "population": "32199", "population:date": "2021-01", "source": "gns,Landsat", "website": "https://www.kangasala.fi/", "wikidata": "Q986322", "wikipedia": "fi:Kangasala"}}, {"type": "node", "id": 30969631, "lat": 60.5343804, "lon": 24.2145287, "tags": {"gns:ufi": "-1369295", "is_in": "Finland", "name": "Karkkila", "name:fi": "Karkkila", "name:ru": "Карккила", "name:sv": "Högfors", "place": "town", "population": "9165", "source": "gnss Landsat", "website": "https://www.karkkila.fi/", "wikidata": "Q530309", "wikipedia": "fi:Karkkila"}}, {"type": "node", "id": 30969637, "lat": 62.3845858, "lon": 21.2225761, "tags": {"gns:ufi": "-1369502", "is_in": "Finland", "name": "Kaskinen", "name:fi": "Kaskinen", "name:ru": "Каскинен", "name:sv": "Kaskö", "place": "town", "population": "1259", "ref:LOCODE": "FIKAS", "source": "gns"}}, {"type": "node", "id": 30969639, "lat": 62.431748, "lon": 22.1841988, "tags": {"gns:ufi": "-1369636", "is_in": "Finland", "name": "Kauhajoki", "name:fi": "Kauhajoki", "name:ru": "Каухайоки", "place": "town", "population": "12991", "population:date": "2021-01", "source": "gnss Landsat", "source:population": "Tilastokeskus", "wikidata": "Q5992", "wikipedia": "fi:Kauhajoki"}}, {"type": "node", "id": 30969647, "lat": 60.5327072, "lon": 25.1102705, "tags": {"gns:ufi": "-1369933", "is_in": "Tuusula,Finland", "name": "Kellokoski", "name:fi": "Kellokoski", "name:sv": "Mariefors", "place": "town", "source": "gns"}}, {"type": "node", "id": 30969655, "lat": 62.2579819, "lon": 24.7083599, "tags": {"gns:ufi": "-1370290", "is_in": "Finland", "name": "Keuruu", "name:fi": "Keuruu", "name:ru": "Кеуруу", "name:sv": "Keuru", "place": "town", "population": "9469", "population:date": "2021-01", "source": "gns", "source:population": "Tilastokeskus", "website": "https://www.keuruu.fi/", "wikidata": "Q742854", "wikipedia": "fi:Keuruu"}}, {"type": "node", "id": 30969665, "lat": 60.383333, "lon": 24.75, "tags": {"gns:ufi": "-1370971", "is_in": "Finland", "name": "Klaukkala", "name:fi": "Klaukkala", "name:ru": "Клауккала", "name:sv": "Klövskog", "place": "town", "population": "17500", "source": "gns"}}, {"type": "node", "id": 30969667, "lat": 61.2513342, "lon": 22.3492421, "tags": {"gns:ufi": "-1371301", "is_in": "Finland", "name": "Kokemäki", "name:fi": "Kokemäki", "name:ru": "Кокемяки", "name:sv": "Kumo", "place": "town", "population": "7923", "source": "gns", "website": "https://kokemaki.fi/", "wikidata": "Q986409", "wikipedia": "fi:Kokemäki"}}, {"type": "node", "id": 30969678, "lat": 62.2736018, "lon": 21.3730807, "tags": {"gns:ufi": "-1372528", "is_in": "Finland", "name": "Kristinestad", "name:fi": "Kristiinankaupunki", "name:ru": "Кристинестад", "name:sv": "Kristinestad", "old_name:en": "Christinestad", "place": "town", "source": "gns"}}, {"type": "node", "id": 30969680, "lat": 61.566667, "lon": 25.183333, "tags": {"gns:ufi": "-1372596", "name": "Kuhmoinen", "name:fi": "Kuhmoinen", "name:ru": "Кухмойнен", "name:sv": "Kuhmois", "place": "town", "population": "2159", "population:date": "2021-01", "source": "gns", "website": "https://www.kuhmoinen.fi/", "wikidata": "Q585888", "wikipedia": "fi:Kuhmoinen"}}, {"type": "node", "id": 30969685, "lat": 61.5360385, "lon": 21.6716375, "tags": {"gns:ufi": "-1373548", "is_in": "Finland", "name": "Kyläsaari", "name:fi": "Kyläsaari", "name:sv": "Inderö", "name:sv_1": "Inderö", "place": "town", "source": "gns"}}, {"type": "node", "id": 30969689, "lat": 60.8801155, "lon": 21.6926352, "tags": {"alt_name": "Laitila", "gns:ufi": "-1374003", "is_in": "Finland", "name": "Laitila", "name:fi": "Laitila", "name:ru": "Лайтила", "name:sv": "Letala", "old_name:de": "Lietata", "place": "town", "population": "8462", "source": "gns", "start_date": "before 1724", "website": "https://www.laitila.fi/", "wikidata": "Q807901", "wikipedia": "fi:Laitila"}}, {"type": "node", "id": 30969690, "lat": 61.0786178, "lon": 25.0099373, "tags": {"gns:ufi": "-1374082", "is_in": "Hämeenlinna", "name": "Lammi", "name:fi": "Lammi", "name:ru": "Ламми", "name:sv": "Lampis", "old_name:de": "Iemla", "place": "town", "population": "2824", "source": "gns", "start_date": "before 1724", "wikidata": "Q1025715", "wikipedia": "fi:Lammi"}}, {"type": "node", "id": 30969693, "lat": 62.2521309, "lon": 21.5209201, "tags": {"gns:ufi": "-1374412", "is_in": "Finland", "name": "Lappfjärd", "name:da": "Lappfjaerd", "name:fi": "Lapväärtti", "name:nb": "Lappfjaerd", "name:nn": "Lappfjaerd", "name:sv": "Lappfjärd", "place": "town", "source": "gns"}}, {"type": "node", "id": 30969695, "lat": 62.416667, "lon": 25.95, "tags": {"gns:ufi": "-1374571", "is_in": "Finland", "name": "Laukaa", "name:fi": "Laukaa", "name:ru": "Лаукаа", "name:sv": "Laukas", "place": "town", "population": "18835", "population:date": "2021-01", "source": "gns", "source:population": "Tilastokeskus", "website": "https://www.laukaa.fi/", "wikidata": "Q990553", "wikipedia": "fi:Laukaa"}}, {"type": "node", "id": 30969697, "lat": 61.316667, "lon": 23.7499999, "tags": {"gns:ufi": "-1374944", "name": "Lempäälä", "name:fi": "Lempäälä", "name:ru": "Лемпяаля", "name:sv": "Lembois", "place": "town", "population": "23837", "population:date": "2021-01", "source": "gns", "website": "https://www.lempaala.fi/", "wikidata": "Q838821", "wikipedia": "fi:Lempäälä"}}, {"type": "node", "id": 30969702, "lat": 60.5022019, "lon": 22.4554559, "tags": {"gns:ufi": "-1375255", "is_in": "Finland", "name": "Lieto", "name:fi": "Lieto", "name:ru": "Лието", "name:sv": "Lundo", "place": "town", "population": "20166", "population:date": "2021-01", "source": "gns", "source:population": "Tilastokeskus", "website": "https://lieto.fi/", "wikidata": "Q1017108", "wikipedia": "fi:Lieto"}}, {"type": "node", "id": 30969708, "lat": 60.8472453, "lon": 23.0513931, "tags": {"gns:ufi": "-1375581", "is_in": "Finland", "name": "Loimaa", "name:fi": "Loimaa", "name:ru": "Лоймаа", "place": "town", "population": "15780", "population:date": "2021-01", "source": "gns", "source:population": "Tilastokeskus", "website": "www.loimaa.fi", "wikidata": "Q915420", "wikipedia": "fi:Loimaa"}}, {"type": "node", "id": 30969709, "lat": 60.7173615, "lon": 24.4414178, "tags": {"gns:ufi": "-1375655", "name": "Loppi", "name:fi": "Loppi", "name:ru": "Лоппи", "old_name:de": "Loppis", "place": "town", "population": "8246", "source": "gns", "start_date": "before 1724", "wikidata": "Q636607", "wikipedia": "fi:Loppi"}}, {"type": "node", "id": 30969714, "lat": 60.6339269, "lon": 25.3188193, "tags": {"gns:ufi": "-1376598", "is_in": "Finland", "name": "Mäntsälä", "name:fi": "Mäntsälä", "name:ru": "Мянтсяля", "place": "town", "population": "20789", "population:date": "2021-01", "source": "gns", "source:population": "Tilastokeskus", "wikidata": "Q986318", "wikipedia": "fi:Mäntsälä"}}, {"type": "node", "id": 30969717, "lat": 60.566667, "lon": 22.1, "tags": {"gns:ufi": "-1376844", "is_in": "Finland", "name": "Masku", "name:fi": "Masku", "name:ru": "Маску", "name:sv": "Masko", "old_name:de": "Masko", "place": "town", "population": "9700", "source": "gns", "start_date": "before 1724", "website": "https://www.masku.fi/", "wikidata": "Q1017127", "wikipedia": "fi:Masku"}}, {"type": "node", "id": 30969718, "lat": 61.8590135, "lon": 21.5032079, "tags": {"gns:ufi": "-1377141", "is_in": "Finland", "name": "Merikarvia", "name:fi": "Merikarvia", "name:ru": "Мерикарвиа", "name:sv": "Sastmola", "place": "town", "population": "3303", "source": "gns", "wikidata": "Q1009215", "wikipedia": "fi:Merikarvia"}}, {"type": "node", "id": 30969720, "lat": 62.1289925, "lon": 25.6749474, "tags": {"gns:ufi": "-1377962", "name": "Muurame", "name:fi": "Muurame", "name:ru": "Муураме", "place": "town", "population": "10263", "population:date": "2021-01", "source": "gns", "source:population": "Tilastokeskus", "website": "https://www.muurame.fi/"}}, {"type": "node", "id": 30969722, "lat": 60.67889, "lon": 21.9861075, "tags": {"gns:ufi": "-1378105", "is_in": "Finland", "name": "Mynämäki", "name:fi": "Mynämäki", "name:ru": "Мюнямяки", "name:sv": "Virmo", "note": "close to municipal hall", "old_name:de": "Wirmo", "place": "town", "source": "gns", "start_date": "before 1724", "wikidata": "Q1017122", "wikipedia": "fi:Mynämäki"}}, {"type": "node", "id": 30969723, "lat": 60.4688687, "lon": 22.0291149, "tags": {"gns:ufi": "-1378137", "is_in": "Finland", "name": "Naantali", "name:fi": "Naantali", "name:mk": "Нантали", "name:ru": "Наантали", "name:sv": "Nådendal", "place": "town", "population": "19426", "population:date": "2021-01", "source": "gns", "source:population": "Tilastokeskus", "wikidata": "Q503862", "wikipedia": "fi:Naantali"}}, {"type": "node", "id": 30969724, "lat": 61.3664981, "lon": 22.0000209, "tags": {"gns:ufi": "-1378202", "is_in": "Finland", "name": "Nakkila", "name:fi": "Nakkila", "name:ru": "Наккила", "name:sv": "Nakkila", "old_name": "Nackeby", "place": "town", "population": "5647", "source": "gns", "wikidata": "Q1009109", "wikipedia": "fi:Nakkila"}}, {"type": "node", "id": 30969725, "lat": 62.4779756, "lon": 21.336676, "tags": {"gns:ufi": "-1378269", "is_in": "Finland", "name": "Närpes", "name:fi": "Närpiö", "name:ru": "Нярпес", "name:sv": "Närpes", "place": "town", "population": "9399", "source": "gns"}}, {"type": "node", "id": 30969726, "lat": 60.9482796, "lon": 25.9335713, "tags": {"gns:ufi": "-1378316", "name": "Nastola", "name:fi": "Nastola", "name:ru": "Настола", "place": "town", "population": "11943", "source": "gns"}}, {"type": "node", "id": 30969732, "lat": 60.466667, "lon": 24.8000275, "tags": {"gns:ufi": "-1379198", "is_in": "Finland", "name": "Nurmijärvi", "name:fi": "Nurmijärvi", "name:ru": "Нурмиярви", "place": "town", "population": "43729", "population:date": "2021-01", "source": "gns", "source:population": "Tilastokeskus", "website": "https://www.nurmijarvi.fi/", "wikidata": "Q597156", "wikipedia": "fi:Nurmijärvi"}}, {"type": "node", "id": 30969735, "lat": 60.805137, "lon": 25.7333558, "tags": {"gns:ufi": "-1379731", "name": "Orimattila", "name:fi": "Orimattila", "name:ru": "Ориматтила", "place": "town", "population": "15892", "population:date": "2021-01", "source": "gns", "source:population": "Tilastokeskus", "website": "https://orimattila.fi/", "wikidata": "Q939701", "wikipedia": "fi:Orimattila"}}, {"type": "node", "id": 30969736, "lat": 61.6775495, "lon": 24.3587506, "tags": {"gns:ufi": "-1379746", "name": "Orivesi", "name:fi": "Orivesi", "name:ru": "Оривеси", "place": "town", "population": "9000", "population:date": "2021-01", "source": "gnssLandsat", "website": "https://orivesi.fi/", "wikidata": "Q953081", "wikipedia": "fi:Orivesi"}}, {"type": "node", "id": 30969740, "lat": 61.3512901, "lon": 25.2785646, "tags": {"gns:ufi": "-1380123", "name": "Padasjoki", "name:fi": "Padasjoki", "name:ru": "Падасьоки", "place": "town", "population": "2865", "population:date": "2021-01", "source": "gns", "website": "https://www.padasjoki.fi/", "wikidata": "Q1025720", "wikipedia": "fi:Padasjoki"}}, {"type": "node", "id": 30969741, "lat": 60.4570244, "lon": 22.6883278, "tags": {"gns:ufi": "-1380230", "is_in": "Finland", "name": "Paimio", "name:fi": "Paimio", "name:ru": "Паймио", "name:sv": "Pemar", "place": "town", "population": "10950", "population:date": "2021-01", "source": "gns", "source:population": "Tilastokeskus", "website": "http://www.paimio.fi/", "wikidata": "Q1017129", "wikipedia": "fi:Paimio"}}, {"type": "node", "id": 30969742, "lat": 61.3371322, "lon": 24.2649422, "tags": {"gns:ufi": "-1380407", "name": "Pälkäne", "name:fi": "Pälkäne", "name:ru": "Пялькяне", "place": "town", "population": "6421", "population:date": "2021-01", "source": "gns;Landsat", "website": "https://www.palkane.fi/", "wikidata": "Q374619", "wikipedia": "fi:Pälkäne"}}, {"type": "node", "id": 30969745, "lat": 60.3054487, "lon": 22.2996452, "tags": {"gns:ufi": "-1380712", "is_in": "Finland", "name": "Pargas", "name:fi": "Parainen", "name:ru": "Паргас", "name:sv": "Pargas", "place": "town", "population": "15095", "population:date": "2021-01", "source": "gns", "source:population": "Tilastokeskus", "website": "https://www.pargas.fi/", "wikidata": "Q1010550", "wikipedia": "fi:Parainen"}}, {"type": "node", "id": 30969747, "lat": 62.0102011, "lon": 23.0245972, "tags": {"gns:ufi": "-1380728", "is_in": "Finland", "name": "Parkano", "name:fi": "Parkano", "name:ru": "Паркано", "place": "town", "population": "6975", "source": "gns", "website": "https://www.parkano.fi/"}}, {"type": "node", "id": 30969752, "lat": 62.2504776, "lon": 25.2004692, "tags": {"gns:ufi": "-1381414", "is_in": "Finland", "name": "Petäjävesi", "name:fi": "Petäjävesi", "name:ru": "Петяйявеси", "place": "town", "population": "4005", "source": "gns", "website": "https://www.petajavesi.fi/"}}, {"type": "node", "id": 30969754, "lat": 61.5594163, "lon": 21.6121352, "tags": {"gns:ufi": "-1381717", "is_in": "Finland", "name": "Pihlava", "place": "town", "wikidata": "Q18661298", "wikipedia": "fi:Pihlava"}}, {"type": "node", "id": 30969756, "lat": 60.4254332, "lon": 22.5130886, "tags": {"gns:ufi": "-1381737", "is_in": "Finland", "name": "Piikkiö", "name:fi": "Piikkiö", "name:ru": "Пииккиё", "name:sv": "Pikis", "place": "town", "source": "gns", "wikidata": "Q783205", "wikipedia": "fi:Piikkiö"}}, {"type": "node", "id": 30969757, "lat": 61.4654497, "lon": 23.6456252, "tags": {"gns:ufi": "-1381899", "name": "Pirkkala", "name:fi": "Pirkkala", "name:ru": "Пирккала", "name:sv": "Birkala", "place": "town", "population": "19832", "population:date": "2021-01", "source": "gns", "website": "https://www.pirkkala.fi/", "wikidata": "Q853628", "wikipedia": "fi:Pirkkala"}}, {"type": "node", "id": 30969766, "lat": 60.5288653, "lon": 24.7582108, "tags": {"gns:ufi": "-1383347", "name": "Rajamäki", "name:fi": "Rajamäki", "place": "town", "postal_code": "05200"}}, {"type": "node", "id": 30969775, "lat": 61.0506941, "lon": 22.333669, "tags": {"gns:ufi": "-1385319", "is_in": "Finland", "name": "Säkylä", "name:fi": "Säkylä", "name:ru": "Сякюля", "place": "town", "population": "4666", "source": "gnssLandsat", "website": "https://www.sakyla.fi/", "wikidata": "Q780914", "wikipedia": "fi:Säkylä"}}, {"type": "node", "id": 30969777, "lat": 60.3846716, "lon": 23.1286377, "tags": {"alt_name": "Salo", "gns:ufi": "-1385479", "is_in": "Finland", "name": "Salo", "name:fi": "Salo", "name:ru": "Сало", "name:sr": "Сало", "place": "city", "population": "51578", "population:date": "2021-01", "source": "gns", "source:population": "Tilastokeskus", "website": "https://salo.fi/", "wikidata": "Q210987", "wikipedia": "fi:Salo"}}, {"type": "node", "id": 30969780, "lat": 60.376199, "lon": 25.2651428, "tags": {"gns:ufi": "-1386367", "name": "Sipoo", "name:el": "Σίπο", "name:fi": "Sipoo", "name:ru": "Сипоо", "name:sv": "Sibbo", "place": "town", "population": "21754", "population:date": "2021-01", "source": "gns", "source:population": "Tilastokeskus", "website": "https://www.sipoo.fi/", "wikidata": "Q986320", "wikipedia": "fi:Sipoo"}}, {"type": "node", "id": 30969790, "lat": 60.8087874, "lon": 23.7598248, "tags": {"gns:ufi": "-1388484", "is_in": "Finland", "name": "Tammela", "name:fi": "Tammela", "name:ru": "Таммела", "place": "town", "population": "6559", "source": "gns", "wikidata": "Q1005049", "wikipedia": "fi:Tammela"}}, {"type": "node", "id": 30969791, "lat": 60.8151183, "lon": 24.6258213, "tags": {"gns:ufi": "-1388829", "is_in": "Janakkala,Finland", "name": "Tervakoski", "name:fi": "Tervakoski", "name:ru": "Тервакоски", "place": "town", "source": "gns", "wikidata": "Q17524288", "wikipedia": "fi:Tervakoski"}}, {"type": "node", "id": 30969792, "lat": 62.486868, "lon": 21.7420491, "tags": {"alt_name": "Östermark", "gns:ufi": "-1388919", "is_in": "Finland", "name": "Teuva", "name:fi": "Teuva", "name:ru": "Теува", "name:sv": "Östermark", "place": "town", "population": "5800", "source": "gns"}}, {"type": "node", "id": 30969794, "lat": 62.389702, "lon": 25.6458923, "tags": {"gns:ufi": "-1389024", "is_in": "Jyväskylä;Finland", "name": "Tikkakoski", "name:fi": "Tikkakoski", "place": "town", "source": "gns", "wikidata": "Q3246585", "wikipedia": "fi:Tikkakoski"}}, {"type": "node", "id": 30969803, "lat": 60.4017496, "lon": 25.0280695, "tags": {"gns:ufi": "-1389911", "is_in": "Finland", "name": "Tuusula", "name:fi": "Tuusula", "name:ru": "Туусула", "name:sv": "Tusby", "place": "town", "population": "38844", "population:date": "2021-01", "postal_code": "04300", "source": "gns", "source:population": "Tilastokeskus", "website": "https://www.tuusula.fi/", "wikidata": "Q214773", "wikipedia": "fi:Tuusula"}}, {"type": "node", "id": 30969808, "lat": 60.8016507, "lon": 21.4086143, "tags": {"gns:ufi": "-1390287", "is_in": "Finland", "loc_name": "Uki;Ugi", "name": "Uusikaupunki", "name:fi": "Uusikaupunki", "name:ru": "Уусикаупунки", "name:sv": "Nystad", "old_name:ru": "Ништадт", "place": "town", "population": "15416", "population:date": "2021-01", "source": "gns", "source:population": "Tilastokeskus", "website": "https://uusikaupunki.fi/", "wikidata": "Q207295", "wikipedia": "fi:Uusikaupunki"}}, {"type": "node", "id": 30969826, "lat": 62.3709678, "lon": 25.9049979, "tags": {"gns:ufi": "-1391809", "is_in": "Laukaa, Finland", "name": "Vihtavuori", "name:fi": "Vihtavuori", "place": "town", "source": "gns", "wikidata": "Q11901275", "wikipedia": "fi:Vihtavuori"}}, {"type": "node", "id": 30969828, "lat": 60.4168803, "lon": 24.320558, "tags": {"gns:ufi": "-1391814", "is_in": "Finland", "name": "Vihti", "name:fi": "Vihti", "name:ru": "Вихти", "name:sv": "Vichtis", "old_name:de": "Wichtis", "place": "town", "population": "29193", "population:date": "2021-01", "source": "gnss Landsat", "source:population": "Tilastokeskus", "start_date": "before 1724", "wikidata": "Q935858", "wikipedia": "fi:Vihti"}}, {"type": "node", "id": 30969830, "lat": 61.2101279, "lon": 23.7677914, "tags": {"gns:ufi": "-1391828", "name": "Viiala", "name:fi": "Viiala", "name:sv": "Viiala", "place": "town", "population": "5087", "population:date": "2019-12-31", "source": "gns", "wikidata": "Q654667", "wikipedia": "fi:Viiala"}}, {"type": "node", "id": 30969834, "lat": 62.0168263, "lon": 24.51556, "tags": {"alt_name": "Vilppula", "gns:ufi": "-1392064", "is_in:country": "Finland", "name": "Vilppula", "name:fi": "Vilppula", "place": "town", "source": "gns"}}, {"type": "node", "id": 30969839, "lat": 62.2402483, "lon": 23.7725594, "tags": {"is_in": "Finland", "name": "Virrat", "name:fi": "Virrat", "name:ru": "Виррат", "name:sv": "Virdois", "place": "town", "population": "7453", "source": "gns", "website": "https://www.virrat.fi/", "wikidata": "Q938820", "wikipedia": "fi:Virrat"}}, {"type": "node", "id": 30969846, "lat": 61.2839792, "lon": 22.6938146, "tags": {"gns:ufi": "6156719", "is_in": "Finland", "name": "Äetsä", "name:fi": "Äetsä", "name:ru": "Ээтся", "place": "town", "population": "2156", "source": "gnssLandsat", "wikidata": "Q252873", "wikipedia": "fi:Äetsä"}}, {"type": "node", "id": 30969878, "lat": 61.5499614, "lon": 23.5969495, "tags": {"gns:ufi": "-1392776", "name": "Ylöjärvi", "name:fi": "Ylöjärvi", "name:ru": "Юлёярви", "place": "town", "population": "33365", "population:date": "2021-01", "source": "gns", "website": "https://www.ylojarvi.fi/", "wikidata": "Q543800", "wikipedia": "fi:Ylöjärvi"}}, {"type": "node", "id": 32426247, "lat": 60.5937982, "lon": 22.3833761, "tags": {"name": "Paattinen", "name:fi": "Paattinen", "name:sv": "Patis", "place": "town", "wikidata": "Q3735042"}}, {"type": "node", "id": 33130756, "lat": 60.3806549, "lon": 23.5925864, "tags": {"name": "Suomusjärvi", "place": "town"}}, {"type": "node", "id": 33624264, "lat": 61.5073697, "lon": 25.6738915, "tags": {"name": "Sysmä", "name:ru": "Сюсмя", "place": "town", "population": "4263", "wikidata": "Q988280", "wikipedia": "fi:Sysmä"}}, {"type": "node", "id": 33625350, "lat": 61.797009, "lon": 25.7046425, "tags": {"name": "Luhanka", "name:fi": "Luhanka", "name:ru": "Луханка", "name:sv": "Luhango", "place": "town", "population": "762", "website": "http://www.luhanka.fi", "wikidata": "Q384106", "wikipedia": "fi:Luhanka"}}, {"type": "node", "id": 33625953, "lat": 62.0168002, "lon": 25.5611984, "tags": {"alt_name": "Korpilahti", "name": "Korpilahti", "name:fi": "Korpilahti", "name:sv": "Korpilax", "old_name:sv": "Korpilaks", "place": "town"}}, {"type": "node", "id": 38426735, "lat": 61.1668495, "lon": 23.8635191, "tags": {"alt_name": "Toijala", "name": "Toijala", "place": "town", "population": "8365", "population:date": "2019-12-31", "wikidata": "Q1850632", "wikipedia": "fi:Toijala"}}, {"type": "node", "id": 38426736, "lat": 61.0811504, "lon": 23.5489697, "tags": {"name": "Urjala", "name:ru": "Урьяла", "name:sv": "Urdiala", "place": "town", "population": "4646", "population:date": "2021-01", "website": "https://www.urjala.fi/", "wikidata": "Q636459", "wikipedia": "fi:Urjala"}}, {"type": "node", "id": 45375487, "lat": 61.5799007, "lon": 26.0206428, "tags": {"is_in": "Finland", "name": "Hartola", "name:ru": "Хартола", "name:sv": "Gustav Adolfs", "place": "town", "population": "3098", "website": "https://hartola.fi/", "wikidata": "Q1010494", "wikipedia": "fi:Hartola"}}, {"type": "node", "id": 45392675, "lat": 61.2027188, "lon": 26.031371, "tags": {"name": "Heinola", "name:ru": "Хейнола", "place": "town", "website": "https://www.heinola.fi/", "wikidata": "Q849934", "wikipedia": "fi:Heinola"}}, {"type": "node", "id": 52219259, "lat": 61.4721221, "lon": 22.1529097, "tags": {"is_in": "Ulvila,Finland", "name": "Kullaa", "name:da": "Kulla", "name:fi": "Kullaa", "name:nn": "Kulla", "name:no": "Kulla", "name:sv": "Kulla", "place": "town"}}, {"type": "node", "id": 52230958, "lat": 61.5957453, "lon": 22.583402, "tags": {"is_in": "Finland", "name": "Lavia", "name:ru": "Лавиа", "place": "town", "population": "1954"}}, {"type": "node", "id": 59848072, "lat": 61.5133807, "lon": 23.0022751, "tags": {"is_in": "Finland", "name": "Mouhijärvi", "name:fi": "Mouhijärvi", "place": "town", "source": "Landsat", "wikipedia": "fi:Mouhijärvi"}}, {"type": "node", "id": 62848831, "lat": 60.3184222, "lon": 23.8223204, "tags": {"is_in": "Lohja", "name": "Sammatti", "place": "town"}}, {"type": "node", "id": 82989938, "lat": 62.2393002, "lon": 25.745951, "tags": {"capital": "4", "name": "Jyväskylä", "name:fi": "Jyväskylä", "name:la": "Granivicus", "name:lt": "Juveskiulė", "name:lv": "Jiveskile", "name:ru": "Ювяскюля", "name:uk": "Ювяскюля", "place": "city", "population": "143444", "population:date": "2021-01", "source:population": "Tilastokeskus", "website": "https://www.jyvaskyla.fi/", "wikidata": "Q134620", "wikipedia": "en:Jyväskylä"}}, {"type": "node", "id": 87827929, "lat": 60.3778747, "lon": 21.9394094, "tags": {"is_in": "Finland", "name": "Rymättylä", "name:ru": "Рюмяттюля", "name:sv": "Rimito", "place": "town", "population": "1999", "wikidata": "Q1641571", "wikipedia": "fi:Rymättylä"}}, {"type": "node", "id": 122330583, "lat": 60.803846, "lon": 23.2821218, "tags": {"is_in": "Finland", "name": "Ypäjä", "name:ru": "Юпяя", "place": "town", "population": "2412", "wikidata": "Q602670", "wikipedia": "fi:Ypäjä"}}, {"type": "node", "id": 129948163, "lat": 60.8973271, "lon": 24.2854098, "tags": {"is_in": "Finland", "name": "Renko", "name:fi": "Renko", "name:ru": "Ренко", "name:sv": "Rengo", "place": "town", "wikidata": "Q1791957", "wikipedia": "fi:Renko"}}, {"type": "node", "id": 129948503, "lat": 61.0736695, "lon": 24.3905151, "tags": {"is_in": "Finland", "name": "Hattula", "name:fi": "Hattula", "name:ru": "Хаттула", "place": "town", "population": "9706", "url": "http://www.hattula.fi", "wikidata": "Q965172", "wikipedia": "fi:Hattula"}}, {"type": "node", "id": 162388750, "lat": 61.2637921, "lon": 24.0301278, "tags": {"name": "Valkeakoski", "name:ru": "Валкеакоски", "place": "town", "population": "20808", "population:date": "2021-01", "website": "https://www.valkeakoski.fi/", "wikidata": "Q322126", "wikipedia": "fi:Valkeakoski"}}, {"type": "node", "id": 164607781, "lat": 61.1521648, "lon": 23.6895802, "tags": {"is_in": "Finland", "name": "Kylmäkoski", "name:fi": "Kylmäkoski", "name:ru": "Кюльмякоски", "place": "town", "wikidata": "Q1641581", "wikipedia": "fi:Kylmäkoski"}}, {"type": "node", "id": 171793510, "lat": 60.5407302, "lon": 22.2208801, "tags": {"is_in": "Finland", "name": "Rusko", "name:fi": "Rusko", "name:ru": "Руско", "name:sv": "Rusko", "place": "town", "population": "6250", "wikidata": "Q1017131", "wikipedia": "fi:Rusko"}}, {"type": "node", "id": 195297952, "lat": 60.6702833, "lon": 25.8513925, "tags": {"alt_name": "Myrskylän kunta", "is_in": "Finland", "name": "Myrskylä", "name:fi": "Myrskylä", "name:ru": "Мюрскюля", "name:sv": "Mörskom", "old_name": "Myrskylänkylä - Myrskylä village", "place": "town", "population": "2011", "source": "http://www.myrskyla.fi", "website": "https://myrskyla.fi/", "wikidata": "Q999226", "wikipedia": "fi:Myrskylä"}}, {"type": "node", "id": 204872802, "lat": 60.8673772, "lon": 25.2779161, "tags": {"name": "Järvelä", "place": "town", "population": "2675"}}, {"type": "node", "id": 224369357, "lat": 60.3001908, "lon": 25.3258422, "tags": {"is_in": "Sipoo", "is_in:municipality": "Sipoo", "name": "Söderkulla", "name:fi": "Söderkulla", "name:sv": "Söderkulla", "place": "town", "population": "9158"}}, {"type": "node", "id": 245003364, "lat": 60.5693675, "lon": 21.9674857, "tags": {"name": "Lemu", "name:fi": "Lemu", "place": "town", "population": "1819"}}, {"type": "node", "id": 245003366, "lat": 60.5992408, "lon": 22.0840745, "tags": {"is_in": "Finland", "name": "Nousiainen", "name:fi": "Nousiainen", "name:ru": "Ноусиайнен", "name:sv": "Nousis", "place": "town", "population": "4800", "website": "https://nousiainen.fi/", "wikidata": "Q1017104", "wikipedia": "fi:Nousiainen"}}, {"type": "node", "id": 246660412, "lat": 61.3631311, "lon": 24.6591617, "tags": {"is_in": "Pälkäne, Finland", "name": "Luopioinen", "place": "town"}}, {"type": "node", "id": 254960479, "lat": 60.9204847, "lon": 24.6510032, "tags": {"name": "Turenki", "name:fi": "Turenki", "name:ru": "Туренки", "place": "town", "population": "7550", "wikidata": "Q7854844", "wikipedia": "fi:Turenki"}}, {"type": "node", "id": 256748123, "lat": 61.1751591, "lon": 24.5649152, "tags": {"is_in": "Finland", "name": "Hauho", "name:fi": "Hauho", "place": "town", "population": "3900", "wikidata": "Q1013639"}}, {"type": "node", "id": 256748126, "lat": 61.1181656, "lon": 24.8337064, "tags": {"is_in": "Finland", "name": "Tuulos", "name:fi": "Tuulos", "place": "town", "population": "1600"}}, {"type": "node", "id": 259229962, "lat": 60.9882542, "lon": 25.5152983, "tags": {"name": "Hollola", "name:fi": "Hollola", "name:ru": "Холлола", "place": "town", "population": "23231", "population:date": "2021-01", "source:population": "Tilastokeskus", "website": "https://www.hollola.fi/", "wikidata": "Q990578", "wikipedia": "fi:Hollola"}}, {"type": "node", "id": 260337862, "lat": 60.5458493, "lon": 21.3558051, "tags": {"name": "Kustavi", "name:ru": "Кустави", "name:sv": "Gustavs", "place": "town", "wikidata": "Q807900", "wikipedia": "fi:Kustavi"}}, {"type": "node", "id": 261083242, "lat": 60.2647218, "lon": 23.447063, "tags": {"is_in": "Finland", "name": "Kisko", "place": "town", "population": "539", "wikipedia": "fi:Kisko"}}, {"type": "node", "id": 264118009, "lat": 61.9856303, "lon": 24.0703481, "tags": {"name": "Ruovesi", "name:ru": "Руовеси", "place": "town", "population": "4208", "population:date": "2021-01", "website": "https://www.ruovesi.fi/"}}, {"type": "node", "id": 265597677, "lat": 60.3431971, "lon": 22.694921, "tags": {"addr:city": "Sauvo", "addr:postcode": "21570", "is_in": "Finland", "name": "Sauvo", "name:fi": "Sauvo", "name:ru": "Сауво", "name:sv": "Sagu", "place": "town", "population": "1253", "wikidata": "Q1017136", "wikipedia": "fi:Sauvo"}}, {"type": "node", "id": 274521070, "lat": 60.94988, "lon": 21.4426922, "tags": {"is_in": "Finland", "name": "Pyhäranta", "name:fi": "Pyhäranta", "name:ru": "Пюхяранта", "name:sv": "Pyhäranta", "old_name": "Pyhämaan Rohdainen", "place": "town", "population": "2200", "wikidata": "Q807902", "wikipedia": "fi:Pyhäranta"}}, {"type": "node", "id": 274718074, "lat": 60.8801075, "lon": 22.4102936, "tags": {"is_in": "Finland", "name": "Yläne", "name:ru": "Юляне", "place": "town"}}, {"type": "node", "id": 277180512, "lat": 61.8613065, "lon": 24.8283904, "tags": {"name": "Halli", "place": "town", "population": "964"}}, {"type": "node", "id": 279909478, "lat": 61.027396, "lon": 21.6889391, "tags": {"is_in": "Finland", "name": "Kodisjoki", "place": "town"}}, {"type": "node", "id": 281201835, "lat": 61.8212196, "lon": 22.6970217, "tags": {"name": "Jämijärvi", "name:fi": "Jämijärvi", "name:ru": "Йямиярви", "place": "town", "population": "1704", "population:date": "2021-01"}}, {"type": "node", "id": 281813363, "lat": 60.5724437, "lon": 21.8674083, "tags": {"is_in": "Finland", "name": "Askainen", "name:fi": "Askainen", "name:ru": "Аскайнен", "name:sv": "Villnäs", "place": "town", "population": "938"}}, {"type": "node", "id": 281826554, "lat": 60.5619353, "lon": 21.6132334, "tags": {"name": "Taivassalo", "name:fi": "Taivassalo", "name:ru": "Тайвассало", "name:sv": "Tövsala", "place": "town", "population": "1687", "website": "https://www.taivassalo.fi/", "wikidata": "Q807904", "wikipedia": "fi:Taivassalo"}}, {"type": "node", "id": 282597294, "lat": 60.6455948, "lon": 25.581976, "tags": {"is_in": "Finland", "name": "Pukkila", "name:fi": "Pukkila", "name:ru": "Пуккила", "name:sv": "Buckila", "place": "town", "population": "2027", "wikidata": "Q599159", "wikipedia": "fi:Pukkila"}}, {"type": "node", "id": 282876062, "lat": 62.307535, "lon": 21.7077697, "tags": {"name": "Karijoki", "name:fi": "Karijoki", "name:ru": "Карийоки", "name:sv": "Bötom", "place": "town", "population": "511", "website": "http://karijoki.fi/"}}, {"type": "node", "id": 282876064, "lat": 62.2031212, "lon": 23.1763928, "tags": {"is_in:country": "Finland", "name": "Kihniö", "name:fi": "KIhniö", "name:ru": "Кихниё", "place": "town", "population": "1951", "wikidata": "Q990563", "wikipedia": "fi:Kihniö"}}, {"type": "node", "id": 282876065, "lat": 61.993025, "lon": 22.2637409, "tags": {"is_in": "Finland", "name": "Honkajoki", "name:ru": "Хонкайоки", "place": "town", "population": "1835", "wikidata": "Q579149", "wikipedia": "fi:Honkajoki"}}, {"type": "node", "id": 282876066, "lat": 62.1143416, "lon": 21.9587762, "tags": {"name": "Isojoki", "name:da": "Storå", "name:fi": "Isojoki", "name:nn": "Storå", "name:no": "Storå", "name:ru": "Исойоки", "name:sv": "Storå", "place": "town", "population": "792"}}, {"type": "node", "id": 282891643, "lat": 61.4441341, "lon": 23.0493893, "tags": {"fixme": "boundaries of former Karkku (-1973) should be added IMO", "is_in:country": "Finland", "is_in:town": "Sastamala", "name": "Karkku", "name:fi": "Karkku", "place": "town", "wikidata": "Q3432693", "wikipedia": "fi:Karkku"}}, {"type": "node", "id": 284884102, "lat": 62.4099783, "lon": 24.8000583, "tags": {"is_in": "Finland", "name": "Multia", "name:ru": "Мултиа", "place": "town", "population": "1762", "website": "https://multia.fi/", "wikidata": "Q999230", "wikipedia": "fi:Multia"}}, {"type": "node", "id": 292715304, "lat": 61.5584438, "lon": 22.7861324, "tags": {"name": "Suodenniemi", "place": "town"}}, {"type": "node", "id": 302093328, "lat": 60.9525637, "lon": 22.8629077, "tags": {"is_in": "Finland", "name": "Alastaro", "name:ru": "Аластaро", "place": "town", "source": "Landsat"}}, {"type": "node", "id": 302093867, "lat": 61.0263238, "lon": 22.6869548, "tags": {"is_in": "Finland", "name": "Vampula", "name:ru": "Вампула", "place": "town", "population": "468"}}, {"type": "node", "id": 302367773, "lat": 60.5271593, "lon": 25.6000156, "tags": {"is_in": "Finland", "name": "Askola", "name:ru": "Аскола", "place": "town", "population": "4968", "website": "https://www.askola.fi/", "wikidata": "Q732159", "wikipedia": "fi:Askola"}}, {"type": "node", "id": 304009402, "lat": 60.4756432, "lon": 25.3745932, "tags": {"name": "Pornainen", "name:fi": "Pornainen", "name:ru": "Порнайнен", "name:sv": "Borgnäs", "place": "town", "population": "5131", "ref": "611", "website": "https://pornainen.fi/", "wikidata": "Q999249", "wikipedia": "fi:Pornainen"}}, {"type": "node", "id": 318637067, "lat": 60.9881967, "lon": 25.5142278, "tags": {"name": "Salpakangas", "name:fi": "Salpakangas", "place": "town", "wikidata": "Q11892144", "wikipedia": "fi:Salpakangas"}}, {"type": "node", "id": 346188125, "lat": 60.5416036, "lon": 22.3389068, "tags": {"name": "Maaria", "name:fi": "Maaria", "name:sv": "S:t Marie", "note": "Jäkärlä on Wikipedian mukaan oma taajamansa Turun ulkopuolella. Lisäksi MML esittää Maarian olevan mm. Ruskon, Piikkiön ja Maskun kanssa samalla viivalla.", "place": "town", "wikidata": "Q999062", "wikipedia": "fi:Maaria"}}, {"type": "node", "id": 351939626, "lat": 60.7789662, "lon": 22.9255453, "tags": {"name": "Mellilä", "place": "town"}}, {"type": "node", "id": 361051643, "lat": 60.585109, "lon": 22.898546, "tags": {"alt_name": "Marttila", "is_in": "Finland", "name": "Marttila", "name:ru": "Марттила", "name:sv": "S.t Mårtens", "place": "town", "population": "2004", "wikidata": "Q678811", "wikipedia": "fi:Marttila"}}, {"type": "node", "id": 370281287, "lat": 60.4477424, "lon": 22.405396, "tags": {"is_in": "Lieto, Finland", "name": "Littoinen", "name:fi": "Littoinen", "name:sv": "Littois", "place": "town", "wikidata": "Q1865930", "wikipedia": "fi:Littoinen"}}, {"type": "node", "id": 430849851, "lat": 60.4612804, "lon": 23.5518226, "tags": {"is_in": "Salo,Finland", "name": "Kiikala", "place": "town"}}, {"type": "node", "id": 430867112, "lat": 60.8555778, "lon": 22.6945818, "tags": {"is_in": "Finland", "name": "Oripää", "name:fi": "Oripää", "name:ru": "Орипяа", "name:sv": "Oripää", "place": "town", "website": "https://oripaa.fi/", "wikidata": "Q582140", "wikipedia": "fi:Oripää"}}, {"type": "node", "id": 431170588, "lat": 60.996826, "lon": 21.9906353, "tags": {"is_in": "Eura,Finland", "name": "Hinnerjoki", "place": "town"}}, {"type": "node", "id": 432607263, "lat": 61.1157761, "lon": 23.0993583, "tags": {"name": "Punkalaidun", "name:ru": "Пункалайдун", "place": "town", "population": "2776", "population:date": "2021-01", "website": "https://www.punkalaidun.fi/"}}, {"type": "node", "id": 441383690, "lat": 61.7290069, "lon": 24.7921264, "tags": {"is_in": "Jämsä, Finland", "name": "Länkipohja", "name:fi": "Länkipohja", "place": "town", "population": "512"}}, {"type": "node", "id": 442539844, "lat": 61.6728209, "lon": 21.6328091, "tags": {"is_in": "Pori", "name": "Ahlainen", "name:fi": "Ahlainen", "name:ru": "Ахлайнен", "name:sv": "Vittisbofjärd", "place": "town"}}, {"type": "node", "id": 446262497, "lat": 61.8783837, "lon": 23.7281893, "tags": {"name": "Kuru", "name:fi": "Kuru", "place": "town", "population": "2000", "wikidata": "Q1025732", "wikipedia": "fi:Kuru"}}, {"type": "node", "id": 469138560, "lat": 60.407169, "lon": 22.3678223, "tags": {"alt_name:sv": "Sankt Karins", "is_in": "Finland", "name": "Kaarina", "name:fi": "Kaarina", "name:ru": "Каарина", "name:sv": "S:t Karins", "place": "town", "population": "34333", "website": "https://kaarina.fi/", "wikidata": "Q735563", "wikipedia": "fi:Kaarina"}}, {"type": "node", "id": 474490351, "lat": 61.5923431, "lon": 21.4915334, "tags": {"name": "Mäntyluoto", "name:fi": "Mäntyluoto", "name:sv": "Tallholmen", "place": "town"}}, {"type": "node", "id": 497283113, "lat": 60.434158, "lon": 23.2704642, "tags": {"name": "Inkere", "name:fi": "Inkere", "place": "town", "wikidata": "Q23045097", "wikipedia": "fi:Inkere (Pertteli)"}}, {"type": "node", "id": 497283114, "lat": 60.4499496, "lon": 23.2419585, "tags": {"name": "Pertteli", "name:fi": "Pertteli", "name:sv": "S:t Bertils", "place": "town", "wikidata": "Q121715", "wikipedia": "fi:Pertteli"}}, {"type": "node", "id": 520642402, "lat": 61.5927219, "lon": 21.8684545, "tags": {"is_in": "Satakunta, Western Finland, Finland", "name": "Noormarkku", "name:fi": "Noormarkku", "name:sv": "Norrmark", "place": "town", "population": "4151", "wikidata": "Q1641623", "wikipedia": "fi:Noormarkku"}}, {"type": "node", "id": 563993632, "lat": 62.3273362, "lon": 25.8455775, "tags": {"is_in": "Laukaa, Finland", "name": "Leppävesi", "name:fi": "Leppävesi", "place": "town", "wikidata": "Q18682174", "wikipedia": "fi:Leppävesi"}}, {"type": "node", "id": 590383723, "lat": 60.5067484, "lon": 22.3789905, "tags": {"name": "Ilmarinen", "place": "town"}}, {"type": "node", "id": 667505415, "lat": 61.8766739, "lon": 21.8216558, "tags": {"is_in": "Finland", "name": "Siikainen", "name:ru": "Сиикайнен", "name:sv": "Siikais", "place": "town", "population": "1663", "website": "http://www.siikainen.fi/", "wikidata": "Q999264", "wikipedia": "fi:Siikainen"}}, {"type": "node", "id": 676469556, "lat": 62.2479788, "lon": 25.8626953, "tags": {"name": "Vaajakoski", "name:fi": "Vaajakoski", "place": "town", "wikidata": "Q7907801", "wikipedia": "fi:Vaajakoski"}}, {"type": "node", "id": 719441322, "lat": 60.8197018, "lon": 24.7596352, "tags": {"is_in": "Hausjärvi;Finland", "name": "Ryttylä", "name:fi": "Ryttylä", "place": "town", "wikidata": "Q11891565", "wikipedia": "fi:Ryttylä"}}, {"type": "node", "id": 852989987, "lat": 60.5805774, "lon": 22.75192, "tags": {"name": "Tarvasjoki", "name:ru": "Тарвасйоки", "place": "town", "population": "1968"}}, {"type": "node", "id": 876148251, "lat": 60.7874293, "lon": 25.0266682, "tags": {"name": "Oitti", "place": "town", "population": "1963", "wikidata": "Q2024882", "wikipedia": "fi:Oitti"}}, {"type": "node", "id": 964767114, "lat": 60.3504751, "lon": 23.2729512, "tags": {"is_in": "Salo, Finland", "name": "Muurla", "name:fi": "Muurla", "name:sv": "Muurla", "place": "town", "wikidata": "Q1641664", "wikipedia": "fi:Muurla"}}, {"type": "node", "id": 980091436, "lat": 61.6935412, "lon": 22.0083959, "tags": {"name": "Pomarkku", "name:fi": "Pomarkku", "name:ru": "Помаркку", "name:sv": "Påmark", "place": "town", "population": "2412", "wikidata": "Q747261", "wikipedia": "fi:Pomarkku"}}, {"type": "node", "id": 1211791285, "lat": 60.4744936, "lon": 23.9843604, "tags": {"name": "Pusula", "name:ru": "Пусула", "place": "town", "population": "772"}}, {"type": "node", "id": 1364178388, "lat": 60.6231935, "lon": 24.4617414, "tags": {"is_in": "Loppi,Suomi", "is_in:municipality": "Loppi", "name": "Läyliäinen", "name:fi": "Läyliäinen", "place": "town", "population": "1200"}}, {"type": "node", "id": 1410009617, "lat": 60.6299165, "lon": 23.5139982, "tags": {"name": "Somero", "name:ru": "Сомеро", "place": "town", "population": "9176", "website": "https://www.somero.fi/", "wikidata": "Q939727", "wikipedia": "fi:Somero"}}, {"type": "node", "id": 1708760777, "lat": 60.3921669, "lon": 23.8847493, "tags": {"is_in": "Lohja,Finland", "name": "Nummi", "name:fi": "Nummi", "name:sv": "Nummis", "place": "town", "population": "483", "wikidata": "Q690454", "wikipedia": "fi:Nummi (Suomen entinen kunta)"}}, {"type": "node", "id": 1809063730, "lat": 61.7970922, "lon": 24.3692695, "tags": {"name": "Korkeakoski", "place": "town", "population": "869"}}, {"type": "node", "id": 2008878427, "lat": 62.2524711, "lon": 24.4543243, "tags": {"name": "Haapamäki", "name:fi": "Haapamäki", "place": "town", "population": "831"}}, {"type": "node", "id": 2022670307, "lat": 61.4606406, "lon": 22.5742487, "tags": {"name": "Kiikoinen", "name:ru": "Кийкойнен", "place": "town", "population": "1263", "wikipedia": "fi:Kiikoinen"}}, {"type": "node", "id": 2162855218, "lat": 61.4764436, "lon": 24.3321619, "tags": {"name": "Sahalahti", "place": "town", "website": "http://www.sahalahti.fi/"}}, {"type": "node", "id": 2387989727, "lat": 61.6125289, "lon": 21.4453963, "tags": {"name": "Reposaari", "name:fi": "Reposaari", "name:sv": "Räfsö", "place": "town", "wikidata": "Q7314172"}}, {"type": "node", "id": 2450636334, "lat": 61.2970187, "lon": 23.6388138, "tags": {"name": "Vesilahti", "name:fi": "Vesilahti", "place": "town", "population": "4371", "population:date": "2021-01", "website": "https://www.vesilahti.fi/", "wikidata": "Q1009136", "wikipedia": "fi:Vesilahti"}}, {"type": "node", "id": 2456630828, "lat": 60.4799034, "lon": 21.871538, "tags": {"name": "Merimasku", "place": "town"}}, {"type": "node", "id": 2607276857, "lat": 60.6279048, "lon": 21.91754, "tags": {"name": "Mietoinen", "place": "town", "population": "1697", "wikidata": "Q1852283", "wikipedia": "fi:Mietoinen"}}, {"type": "node", "id": 2686636621, "lat": 61.0221269, "lon": 25.1575102, "tags": {"name": "Hämeenkoski", "name:1865-1995": "Koski Hl", "name:fi": "Hämeenkoski", "name:ru": "Хямеэнкоски", "name:zh": "海門科斯基", "place": "town", "place:1865-2015": "town", "population": "1086"}}, {"type": "node", "id": 3039345279, "lat": 61.0998964, "lon": 21.8445743, "tags": {"name": "Lappi", "name:ru": "Лаппи", "place": "town"}}, {"type": "node", "id": 3061156316, "lat": 60.5198785, "lon": 23.219296, "tags": {"name": "Kuusjoki", "place": "town", "wikipedia": "fi:Kuusjoki"}}, {"type": "node", "id": 3254916483, "lat": 61.7069842, "lon": 23.2735695, "tags": {"is_in": "Ylöjärvi", "name": "Viljakkala", "place": "town"}}, {"type": "node", "id": 3478266562, "lat": 61.2071704, "lon": 22.0832479, "tags": {"name": "Kiukainen", "place": "town"}}, {"type": "node", "id": 3605583715, "lat": 60.8187051, "lon": 21.5524799, "tags": {"name": "Kalanti", "name:fi": "Kalanti", "name:sv": "Kaland", "place": "town"}}, {"type": "node", "id": 3684480575, "lat": 61.1180915, "lon": 22.3059348, "tags": {"end_date:town": "2015-12-31", "is_in": "Säkylä, Finland", "name": "Köyliö", "place": "town", "start_date:village": "2016-01-01"}}, {"type": "node", "id": 4081721107, "lat": 60.6530502, "lon": 23.1406187, "tags": {"alt_name": "Koski", "is_in": "Finland", "name": "Koski Tl", "name:fi": "Koski Tl", "name:ru": "Коски", "name:sv": "Koskis", "place": "town", "population": "2388", "wikidata": "Q1017142", "wikipedia": "fi:Koski Tl"}}, {"type": "node", "id": 4271988023, "lat": 60.6861761, "lon": 21.7181447, "tags": {"name": "Vinkkilä", "place": "town", "population": "1081"}}, {"type": "node", "id": 4705974941, "lat": 60.3819956, "lon": 23.9695291, "tags": {"name": "Saukkola", "place": "town"}}, {"type": "node", "id": 4799773758, "lat": 60.6100315, "lon": 22.3075198, "tags": {"name": "Vahto", "name:fi": "Vahto", "name:ru": "Вахто", "place": "town", "wikidata": "Q386061", "wikipedia": "en:Vahto"}}, {"type": "node", "id": 4880014477, "lat": 60.6823576, "lon": 21.4644839, "tags": {"name": "Lokalahti", "name:fi": "Lokalahti", "name:sv": "Lokalax", "place": "town"}}, {"type": "node", "id": 4889030845, "lat": 60.3339805, "lon": 24.3208686, "tags": {"alt_name": "Nummela", "gns:ufi": "-1379067", "is_in": "Finland", "name": "Nummela", "name:fi": "Nummela", "name:ru": "Нуммела", "place": "town", "source": "gnssssLandsat", "wikidata": "Q1280623", "wikipedia": "fi:Nummela"}}, {"type": "node", "id": 4889138401, "lat": 60.7029584, "lon": 22.7553823, "tags": {"name": "Kyrö", "place": "town", "population": "1749", "wikidata": "Q11874017", "wikipedia": "fi:Kyrö (Pöytyä)"}}, {"type": "node", "id": 4927064731, "lat": 61.051566, "lon": 24.3656253, "tags": {"is_in": "Hattula,Finland", "name": "Parola", "place": "town", "population": "6737", "wikidata": "Q2673718", "wikipedia": "fi:Parola"}}, {"type": "node", "id": 4945424284, "lat": 61.1752192, "lon": 25.5300579, "tags": {"name": "Vääksy", "name:fi": "Vääksy", "name:sv": "Vääksy", "place": "town", "source": "https://fi.wikipedia.org/wiki/V%C3%A4%C3%A4ksy", "wikidata": "Q2233799"}}, {"type": "node", "id": 4952913645, "lat": 60.5666337, "lon": 22.4465861, "tags": {"name": "Lieto as", "name:fi": "Lieto as", "name:sv": "Lundo stn", "place": "town", "wikidata": "Q18682177", "wikipedia": "fi:Liedon asemanseutu"}}, {"type": "node", "id": 4966130398, "lat": 61.3441735, "lon": 22.9094429, "tags": {"name": "Vammala", "name:fi": "Vammala", "place": "town", "population": "10243", "wikidata": "Q996067", "wikipedia": "fi:Vammala"}}, {"type": "node", "id": 5183999998, "lat": 62.0294216, "lon": 24.6232138, "tags": {"name": "Mänttä", "name:fi": "Mänttä", "name:ru": "Мянття", "place": "town"}}, {"type": "node", "id": 5468986035, "lat": 61.2018184, "lon": 21.7296943, "tags": {"is_in": "Finland", "name": "Eurajoki", "name:fi": "Eurajoki", "name:ru": "Эурайоки", "name:sv": "Euraåminne", "place": "town", "population": "5886", "url": "http://www.eurajoki.fi", "wikidata": "Q1001783", "wikipedia": "fi:Eurajoki"}}, {"type": "node", "id": 5913456683, "lat": 61.2016604, "lon": 24.0696292, "tags": {"name": "Sääksmäki", "name:fi": "Sääksmäki", "place": "town", "wikidata": "Q606021", "wikipedia": "fi:Sääksmäki"}}, {"type": "node", "id": 5940472240, "lat": 60.7199253, "lon": 22.6047217, "tags": {"name": "Riihikoski", "place": "town", "population": "1555"}}, {"type": "node", "id": 6180322338, "lat": 60.4664777, "lon": 21.6654628, "tags": {"name": "Velkua", "name:fi": "Velkua", "place": "town", "wikidata": "Q939276", "wikipedia": "fi:Velkua"}}, {"type": "node", "id": 7009936464, "lat": 60.8679589, "lon": 22.9851698, "tags": {"name": "Hirvikoski", "place": "town"}}, {"type": "node", "id": 7161230008, "lat": 61.4333298, "lon": 21.8833199, "tags": {"gns:ufi": "-1390110", "name": "Ulvila", "name:fi": "Ulvila", "name:ru": "Улвила", "name:sv": "Ulfsby", "place": "town", "population": "12733", "population:date": "2021-01", "source": "gns", "source:population": "Tilastokeskus", "wikidata": "Q247128", "wikipedia": "fi:Ulvila"}}]}